COSMOS 2433 (720)       
1 32275U 07052A   24273.39435935 -.00000067  00000+0  00000+0 0  9994
2 32275  65.8929 336.9147 0005168 233.2161 126.8031  2.13104201131764
COSMOS 2432 (719)       
1 32276U 07052B   24272.53811844 -.00000071  00000+0  00000+0 0  9992
2 32276  65.9084 337.0591 0009339 310.2729  58.7648  2.13103201131736
COSMOS 2434 (721)       
1 32393U 07065A   24273.30388966 -.00000033  00000+0  00000+0 0  9994
2 32393  64.3194 213.0480 0001457  58.2478 124.5666  2.13101323130468
COSMOS 2436 (723)       
1 32395U 07065C   24272.65060456 -.00000032  00000+0  00000+0 0  9993
2 32395  64.3281 213.1356 0016598 357.7351 178.8805  2.13100076130370
COSMOS 2456 (730)       
1 36111U 09070A   24272.15333762  .00000057  00000+0  00000+0 0  9995
2 36111  64.6616  92.4238 0001529 340.6672 193.6484  2.13103831115066
COSMOS 2457 (733)       
1 36112U 09070B   24272.41263866  .00000057  00000+0  00000+0 0  9992
2 36112  64.6464  92.2714 0006121 141.9033   4.5230  2.13101286115073
COSMOS 2460 (732)       
1 36402U 10007C   24272.30730579 -.00000069  00000+0  00000+0 0  9998
2 36402  65.7476 335.5986 0002224 226.0922 192.7347  2.13106319113378
COSMOS 2476 (744)       
1 37867U 11064A   24272.50790007  .00000060  00000+0  00000+0 0  9992
2 37867  64.9331  94.0850 0021706 230.6616 127.6738  2.13101663100407
COSMOS 2477 (745)       
1 37868U 11064B   24272.65817271  .00000060  00000+0  00000+0 0  9992
2 37868  64.9400  94.1534 0018873 230.8443  61.4073  2.13103134100408
COSMOS 2475 (743)       
1 37869U 11064C   24272.11927289  .00000059  00000+0  00000+0 0  9993
2 37869  64.9481  94.1873 0023189 248.1340 308.6475  2.13101675100408
COSMOS 2485 (747)       
1 39155U 13019A   24271.98272358  .00000059  00000+0  00000+0 0  9999
2 39155  65.0892  94.7087 0022179 226.6559 133.2160  2.13101873 88914
COSMOS 2492 (754)       
1 39620U 14012A   24272.40719388 -.00000068  00000+0  00000+0 0  9998
2 39620  65.6285 335.1573 0012436 309.5313  50.4241  2.13103247 81885
COSMOS 2500 (755)       
1 40001U 14032A   24272.58520219 -.00000067  00000+0  00000+0 0  9996
2 40001  65.5656 334.9483 0008894 208.2275 151.7899  2.13105986 80103
COSMOS 2501 (702K)      
1 40315U 14075A   24272.37017241 -.00000033  00000+0  00000+0 0  9997
2 40315  63.6204 212.0905 0020317 209.6270 150.2427  2.13101426 76491
COSMOS 2514 (751)       
1 41330U 16008A   24272.35306213 -.00000067  00000+0  00000+0 0  9998
2 41330  65.3597 334.4394 0012894 213.1296 146.8549  2.13102677 67263
COSMOS 2522 (752)       
1 42939U 17055A   24272.19289193 -.00000030  00000+0  00000+0 0  9996
2 42939  64.0816 213.2462 0008895 240.0402 119.8556  2.13101995 54618
COSMOS 2527 (756)       
1 43508U 18053A   24272.15238671  .00000061  00000+0  00000+0 0  9992
2 43508  65.2500  94.8763 0007403 214.0486 145.9613  2.13102379 48915
COSMOS 2529 (757)       
1 43687U 18086A   24273.18948710 -.00000032  00000+0  00000+0 0  9991
2 43687  64.2972 213.7530 0010327 260.4458  99.4199  2.13102027 45944
COSMOS 2534 (758)       
1 44299U 19030A   24272.98196059 -.00000032  00000+0  00000+0 0  9999
2 44299  64.3705 213.7230 0012279 281.5167  53.3801  2.13102078 41575
COSMOS 2544 (759)       
1 44850U 19088A   24273.03503490  .00000062  00000+0  00000+0 0  9995
2 44850  65.2370  94.6815 0011473 247.4324 112.5031  2.13102161 37359
COSMOS 2545 (760)       
1 45358U 20018A   24273.23185809 -.00000065  00000+0  00000+0 0  9990
2 45358  64.6984 334.3355 0011617 240.6363 119.3151  2.13102628 35329
COSMOS 2547 (705K)      
1 46805U 20075A   24272.47993133 -.00000031  00000+0  00000+0 0  9996
2 46805  64.5996 213.4122 0007970 240.5129 119.3912  2.13102807 30558
COSMOS 2557 (706K)      
1 52984U 22075A   24272.64572107 -.00000071  00000+0  00000+0 0  9990
2 52984  64.6281 336.4763 0013076 273.4577  86.4568  2.13102377 17361
COSMOS 2559 (707K)      
1 54031U 22130A   24272.11968689 -.00000074  00000+0  00000+0 0  9996
2 54031  64.6004 336.6089 0008150 223.4366 136.5614  2.13101601 15322
COSMOS 2564 (761)       
1 54377U 22161A   24272.31004955 -.00000030  00000+0  00000+0 0  9994
2 54377  64.7411 213.5411 0010271 221.8993 138.0059  2.13102075 14274
COSMOS 2569 (703K)      
1 57517U 23114A   24271.85747760  .00000058  00000+0  00000+0 0  9997
2 57517  64.9640  93.8334 0008612 294.1849  65.7807  2.13103979  8893
